start=new Date('2022-02-16T00:00:00.000Z').valueOf();
sats=[{"MEAN_ELEMENT_THEORY":"SGP4","MEAN_ANOMALY":"122.2018","LAUNCH_DATE":"2021-03-24","ARG_OF_PERICENTER":"68.8571","EPOCH":"2022-02-15T22:00:01.999584","MEAN_MOTION_DDOT":"0.0000000000000","DECAY_DATE":null,"PERIOD":"95.594","ECCENTRICITY":"0.00012630","COUNTRY_CODE":"US","SEMIMAJOR_AXIS":"6925.441","INCLINATION":"53.0548","FILE":"3301463","CLASSIFICATION_TYPE":"U","SITE":"AFETR","PERIAPSIS":"546.431","OBJECT_NAME":"STARLINK-2308","BSTAR":"0.00204840000000","MEAN_MOTION":"15.06369827","ELEMENT_SET_NO":"999","NORAD_CAT_ID":"47985","TLE_LINE2":"2 47985  53.0548  88.0447 0001263  68.8571 122.2018 15.06369827  3598","RA_OF_ASC_NODE":"88.0447","TLE_LINE1":"1 47985U 21024J   22046.91668981  .00030336  00000-0  20484-2 0  9999","RCS_SIZE":"LARGE","REF_FRAME":"TEME","EPHEMERIS_TYPE":"0","MEAN_MOTION_DOT":"0.00030336","REV_AT_EPOCH":"359","OBJECT_ID":"2021-024J","CENTER_NAME":"EARTH","GP_ID":"196058864","APOAPSIS":"548.181","TIME_SYSTEM":"UTC","OBJECT_TYPE":"PAYLOAD"},{"MEAN_MOTION_DOT":"0.00598266","EPHEMERIS_TYPE":"0","REF_FRAME":"TEME","OBJECT_TYPE":"PAYLOAD","TIME_SYSTEM":"UTC","GP_ID":"196059615","APOAPSIS":"302.847","CENTER_NAME":"EARTH","OBJECT_ID":"2021-024K","REV_AT_EPOCH":"372","RA_OF_ASC_NODE":"3.6578","TLE_LINE1":"1 47986U 21024K   22046.91668981  .00598266  15020-3  19130-2 0  9998","TLE_LINE2":"2 47986  53.0476   3.6578 0002979 162.8757 247.5248 15.90509960  3721","NORAD_CAT_ID":"47986","RCS_SIZE":"LARGE","PERIAPSIS":"298.867","SITE":"AFETR","CLASSIFICATION_TYPE":"U","FILE":"3301463","ELEMENT_SET_NO":"999","MEAN_MOTION":"15.90509960","BSTAR":"0.00191300000000","OBJECT_NAME":"STARLINK-2313","MEAN_MOTION_DDOT":"0.0001502000000","EPOCH":"2022-02-15T22:00:01.999584","ARG_OF_PERICENTER":"162.8757","MEAN_ANOMALY":"247.5248","LAUNCH_DATE":"2021-03-24","MEAN_ELEMENT_THEORY":"SGP4","COUNTRY_CODE":"US","INCLINATION":"53.0476","SEMIMAJOR_AXIS":"6678.992","PERIOD":"90.537","DECAY_DATE":null,"ECCENTRICITY":"0.00029790"},{"SEMIMAJOR_AXIS":"6819.824","COUNTRY_CODE":"US","INCLINATION":"53.0578","DECAY_DATE":null,"PERIOD":"93.416","ECCENTRICITY":"0.00019050","EPOCH":"2022-02-15T11:16:27.887808","ARG_OF_PERICENTER":"7.3589","MEAN_MOTION_DDOT":"0.0000000000000","MEAN_ELEMENT_THEORY":"SGP4","MEAN_ANOMALY":"352.7443","LAUNCH_DATE":"2021-03-24","ELEMENT_SET_NO":"999","BSTAR":"0.00149750000000","OBJECT_NAME":"STARLINK-2306","MEAN_MOTION":"15.41498214","SITE":"AFETR","PERIAPSIS":"440.390","FILE":"3301229","CLASSIFICATION_TYPE":"U","RCS_SIZE":"LARGE","RA_OF_ASC_NODE":"120.9047","TLE_LINE1":"1 47988U 21024M   22046.46976722  .00063872  00000-0  14975-2 0  9996","NORAD_CAT_ID":"47988","TLE_LINE2":"2 47988  53.0578 120.9047 0001905   7.3589 352.7443 15.41498214 51425","APOAPSIS":"442.988","GP_ID":"196029018","CENTER_NAME":"EARTH","OBJECT_TYPE":"PAYLOAD","TIME_SYSTEM":"UTC","REV_AT_EPOCH":"5142","OBJECT_ID":"2021-024M","EPHEMERIS_TYPE":"0","MEAN_MOTION_DOT":"0.00063872","REF_FRAME":"TEME"},{"MEAN_MOTION":"15.06353041","BSTAR":"0.00470140000000","OBJECT_NAME":"STARLINK-2305","ELEMENT_SET_NO":"999","CLASSIFICATION_TYPE":"U","FILE":"3301463","PERIAPSIS":"546.427","SITE":"AFETR","DECAY_DATE":null,"ECCENTRICITY":"0.00013440","PERIOD":"95.595","COUNTRY_CODE":"US","SEMIMAJOR_AXIS":"6925.492","INCLINATION":"53.0538","MEAN_ANOMALY":"94.3881","LAUNCH_DATE":"2021-03-24","MEAN_ELEMENT_THEORY":"SGP4","MEAN_MOTION_DDOT":"0.0000000000000","EPOCH":"2022-02-15T22:00:01.999584","ARG_OF_PERICENTER":"94.0109","OBJECT_ID":"2021-024N","REV_AT_EPOCH":"359","OBJECT_TYPE":"PAYLOAD","TIME_SYSTEM":"UTC","APOAPSIS":"548.288","GP_ID":"196058113","CENTER_NAME":"EARTH","REF_FRAME":"TEME","MEAN_MOTION_DOT":"0.00070358","EPHEMERIS_TYPE":"0","RCS_SIZE":"LARGE","TLE_LINE2":"2 47989  53.0538  63.0370 0001344  94.0109  94.3881 15.06353041  3595","NORAD_CAT_ID":"47989","TLE_LINE1":"1 47989U 21024N   22046.91668981  .00070358  00000-0  47014-2 0  9999","RA_OF_ASC_NODE":"63.0370"},{"PERIAPSIS":"546.152","SITE":"AFETR","CLASSIFICATION_TYPE":"U","FILE":"3301463","ELEMENT_SET_NO":"999","MEAN_MOTION":"15.06370166","OBJECT_NAME":"STARLINK-2307","BSTAR":"0.00325520000000","MEAN_MOTION_DDOT":"0.0000000000000","ARG_OF_PERICENTER":"61.7251","EPOCH":"2022-02-15T22:00:01.999584","LAUNCH_DATE":"2021-03-24","MEAN_ANOMALY":"21.6638","MEAN_ELEMENT_THEORY":"SGP4","INCLINATION":"53.0500","COUNTRY_CODE":"US","SEMIMAJOR_AXIS":"6925.440","DECAY_DATE":null,"PERIOD":"95.594","ECCENTRICITY":"0.00016650","MEAN_MOTION_DOT":"0.00048500","EPHEMERIS_TYPE":"0","REF_FRAME":"TEME","TIME_SYSTEM":"UTC","OBJECT_TYPE":"PAYLOAD","CENTER_NAME":"EARTH","GP_ID":"196058365","APOAPSIS":"548.458","OBJECT_ID":"2021-024P","REV_AT_EPOCH":"359","RA_OF_ASC_NODE":"63.0495","TLE_LINE1":"1 47990U 21024P   22046.91668981  .00048500  00000-0  32552-2 0  9996","TLE_LINE2":"2 47990  53.0500  63.0495 0001665  61.7251  21.6638 15.06370166  3599","NORAD_CAT_ID":"47990","RCS_SIZE":"LARGE"},{"RCS_SIZE":"LARGE","TLE_LINE2":"2 47991  53.0545  77.9596 0001223  75.0362 354.2270 15.04766559  3596","NORAD_CAT_ID":"47991","RA_OF_ASC_NODE":"77.9596","TLE_LINE1":"1 47991U 21024Q   22046.91668981  .00019746  00000-0  14007-2 0  9992","OBJECT_ID":"2021-024Q","REV_AT_EPOCH":"359","OBJECT_TYPE":"PAYLOAD","TIME_SYSTEM":"UTC","APOAPSIS":"553.072","GP_ID":"196059116","CENTER_NAME":"EARTH","REF_FRAME":"TEME","MEAN_MOTION_DOT":"0.00019746","EPHEMERIS_TYPE":"0","ECCENTRICITY":"0.00012230","DECAY_DATE":null,"PERIOD":"95.696","COUNTRY_CODE":"US","INCLINATION":"53.0545","SEMIMAJOR_AXIS":"6930.359","LAUNCH_DATE":"2021-03-24","MEAN_ANOMALY":"354.2270","MEAN_ELEMENT_THEORY":"SGP4","MEAN_MOTION_DDOT":"0.0000000000000","EPOCH":"2022-02-15T22:00:01.999584","ARG_OF_PERICENTER":"75.0362","MEAN_MOTION":"15.04766559","BSTAR":"0.00140070000000","OBJECT_NAME":"STARLINK-2279","ELEMENT_SET_NO":"999","CLASSIFICATION_TYPE":"U","FILE":"3301463","PERIAPSIS":"551.377","SITE":"AFETR"},{"COUNTRY_CODE":"US","SEMIMAJOR_AXIS":"6925.443","INCLINATION":"53.0546","DECAY_DATE":null,"ECCENTRICITY":"0.00014110","PERIOD":"95.594","ARG_OF_PERICENTER":"62.0608","EPOCH":"2022-02-15T22:00:01.999584","MEAN_MOTION_DDOT":"0.0000000000000","MEAN_ELEMENT_THEORY":"SGP4","MEAN_ANOMALY":"251.5632","LAUNCH_DATE":"2021-03-24","ELEMENT_SET_NO":"999","OBJECT_NAME":"STARLINK-2229","BSTAR":"0.00087114000000","MEAN_MOTION":"15.06369318","SITE":"AFETR","PERIAPSIS":"546.330","FILE":"3301463","CLASSIFICATION_TYPE":"U","RCS_SIZE":"LARGE","RA_OF_ASC_NODE":"73.0480","TLE_LINE1":"1 47992U 21024R   22046.91668981  .00012707  00000-0  87114-3 0  9993","NORAD_CAT_ID":"47992","TLE_LINE2":"2 47992  53.0546  73.0480 0001411  62.0608 251.5632 15.06369318  3589","APOAPSIS":"548.285","GP_ID":"196059367","CENTER_NAME":"EARTH","TIME_SYSTEM":"UTC","OBJECT_TYPE":"PAYLOAD","REV_AT_EPOCH":"358","OBJECT_ID":"2021-024R","EPHEMERIS_TYPE":"0","MEAN_MOTION_DOT":"0.00012707","REF_FRAME":"TEME"},{"OBJECT_NAME":"STARLINK-2273","BSTAR":"0.00030228000000","MEAN_MOTION":"15.06400944","ELEMENT_SET_NO":"999","FILE":"3301463","CLASSIFICATION_TYPE":"U","SITE":"AFETR","PERIAPSIS":"546.187","ECCENTRICITY":"0.00014780","DECAY_DATE":null,"PERIOD":"95.592","COUNTRY_CODE":"US","INCLINATION":"53.0554","SEMIMAJOR_AXIS":"6925.346","MEAN_ELEMENT_THEORY":"SGP4","LAUNCH_DATE":"2021-03-24","MEAN_ANOMALY":"302.1234","ARG_OF_PERICENTER":"57.9899","EPOCH":"2022-02-15T20:59:26.371392","MEAN_MOTION_DDOT":"0.0000000000000","REV_AT_EPOCH":"5162","OBJECT_ID":"2021-024S","APOAPSIS":"548.234","GP_ID":"196058613","CENTER_NAME":"EARTH","TIME_SYSTEM":"UTC","OBJECT_TYPE":"PAYLOAD","REF_FRAME":"TEME","EPHEMERIS_TYPE":"0","MEAN_MOTION_DOT":"0.00004224","RCS_SIZE":"LARGE","NORAD_CAT_ID":"47993","TLE_LINE2":"2 47993  53.0554 113.2473 0001478  57.9899 302.1234 15.06400944 51626","TLE_LINE1":"1 47993U 21024S   22046.87461078  .00004224  00000-0  30228-3 0  9996","RA_OF_ASC_NODE":"113.2473"},{"REF_FRAME":"TEME","EPHEMERIS_TYPE":"0","MEAN_MOTION_DOT":"0.00002598","REV_AT_EPOCH":"5133","OBJECT_ID":"2021-024T","CENTER_NAME":"EARTH","GP_ID":"196058865","APOAPSIS":"548.156","OBJECT_TYPE":"PAYLOAD","TIME_SYSTEM":"UTC","NORAD_CAT_ID":"47994","TLE_LINE2":"2 47994  53.0546 128.8104 0001340  67.1934 292.9196 15.06395341 51337","TLE_LINE1":"1 47994U 21024T   22046.74605971  .00002598  00000-0  19324-3 0  9991","RA_OF_ASC_NODE":"128.8104","RCS_SIZE":"LARGE","FILE":"3301463","CLASSIFICATION_TYPE":"U","SITE":"AFETR","PERIAPSIS":"546.300","BSTAR":"0.00019324000000","OBJECT_NAME":"STARLINK-2290","MEAN_MOTION":"15.06395341","ELEMENT_SET_NO":"999","MEAN_ELEMENT_THEORY":"SGP4","LAUNCH_DATE":"2021-03-24","MEAN_ANOMALY":"292.9196","EPOCH":"2022-02-15T17:54:19.558944","ARG_OF_PERICENTER":"67.1934","MEAN_MOTION_DDOT":"0.0000000000000","PERIOD":"95.592","DECAY_DATE":null,"ECCENTRICITY":"0.00013400","COUNTRY_CODE":"US","SEMIMAJOR_AXIS":"6925.363","INCLINATION":"53.0546"},{"ARG_OF_PERICENTER":"61.0821","EPOCH":"2022-02-15T20:34:12.076608","MEAN_MOTION_DDOT":"0.0000000000000","MEAN_ELEMENT_THEORY":"SGP4","MEAN_ANOMALY":"299.0329","LAUNCH_DATE":"2021-03-24","COUNTRY_CODE":"US","SEMIMAJOR_AXIS":"6925.344","INCLINATION":"53.0563","PERIOD":"95.592","DECAY_DATE":null,"ECCENTRICITY":"0.00016040","SITE":"AFETR","PERIAPSIS":"546.098","FILE":"3301463","CLASSIFICATION_TYPE":"U","ELEMENT_SET_NO":"999","OBJECT_NAME":"STARLINK-2309","BSTAR":"0.00039833000000","MEAN_MOTION":"15.06401509","RA_OF_ASC_NODE":"93.3199","TLE_LINE1":"1 47995U 21024U   22046.85708422  .00005657  00000-0  39833-3 0  9995","NORAD_CAT_ID":"47995","TLE_LINE2":"2 47995  53.0563  93.3199 0001604  61.0821 299.0329 15.06401509 51855","RCS_SIZE":"LARGE","EPHEMERIS_TYPE":"0","MEAN_MOTION_DOT":"0.00005657","REF_FRAME":"TEME","CENTER_NAME":"EARTH","GP_ID":"196059616","APOAPSIS":"548.320","TIME_SYSTEM":"UTC","OBJECT_TYPE":"PAYLOAD","REV_AT_EPOCH":"5185","OBJECT_ID":"2021-024U"}];
